ONEWEB-0716             
1 55177U 23004AP  25021.76691633  .00000048  00000+0  90783-4 0  9997
2 55177  87.9092 107.7782 0001585 109.5788 250.5515 13.17648983100230
ONEWEB-0717             
1 55178U 23004AQ  25023.19283584  .00000055  00000+0  10798-3 0  9994
2 55178  87.9086 107.4549 0002123  82.3948 277.7425 13.17647629100470
ONEWEB-0719             
1 55179U 23004AR  25023.20294699  .00000055  00000+0  10742-3 0  9995
2 55179  87.9085 107.4378 0001529 105.7934 254.3366 13.17650374100425
ONEWEB-0530             
1 55796U 23029A   25023.47451753  .00000060  00000+0  11593-3 0  9993
2 55796  87.9261  15.8903 0001760  66.6843 293.4476 13.20772369 93861
ONEWEB-0534             
1 55797U 23029B   25023.53764591  .00000129  00000+0  28647-3 0  9992
2 55797  87.9264  15.8849 0001699  89.0174 271.1154 13.20773598 93873
ONEWEB-0556             
1 55798U 23029C   25023.46820172  .00000078  00000+0  16012-3 0  9999
2 55798  87.9260  15.8914 0001051  67.2909 292.8336 13.20773576 93866
ONEWEB-0562             
1 55799U 23029D   25023.53132992  .00000118  00000+0  25818-3 0  9993
2 55799  87.9264  15.8709 0001552  51.5346 308.5926 13.20773887 93876
ONEWEB-0563             
1 55800U 23029E   25023.52501462  .00000075  00000+0  15273-3 0  9993
2 55800  87.9262  15.8868 0001544  97.2768 262.8541 13.20774118 93861
